[{"OBJECT_NAME":"STARLINK-4274","OBJECT_ID":"2022-062AM","EPOCH":"2026-03-09T06:11:23.189856","MEAN_MOTION":15.08844734,"ECCENTRICITY":0.00013062,"INCLINATION":53.2194,"RA_OF_ASC_NODE":26.0591,"ARG_OF_PERICENTER":83.9235,"MEAN_ANOMALY":276.1906,"EPHEMERIS_TYPE":0,"CLASSIFICATION_TYPE":"U","NORAD_CAT_ID":52865,"ELEMENT_SET_NO":999,"REV_AT_EPOCH":20586,"BSTAR":-9.0558774e-5,"MEAN_MOTION_DOT":-1.729e-5,"MEAN_MOTION_DDOT":0},{"OBJECT_NAME":"PRSC-S1","OBJECT_ID":"2025-164A","EPOCH":"2026-03-09T14:34:55.095168","MEAN_MOTION":15.0891951,"ECCENTRICITY":0.0004466,"INCLINATION":41.129,"RA_OF_ASC_NODE":129.3637,"ARG_OF_PERICENTER":348.3012,"MEAN_ANOMALY":11.7698,"EPHEMERIS_TYPE":0,"CLASSIFICATION_TYPE":"U","NORAD_CAT_ID":65055,"ELEMENT_SET_NO":999,"REV_AT_EPOCH":3340,"BSTAR":0.00046631,"MEAN_MOTION_DOT":7.316e-5,"MEAN_MOTION_DDOT":0}]
