STARLINK-4274           
1 52865U 22062AM  26068.25790729 -.00001729  00000+0 -90559-4 0  9993
2 52865  53.2194  26.0591 0001306  83.9235 276.1906 15.08844734205861
PRSC-S1                 
1 65055U 25164A   26068.60758212  .00007316  00000+0  46631-3 0  9991
2 65055  41.1290 129.3637 0004466 348.3012  11.7698 15.08919510 33403
